STARLINK-1364_new
1 15589C 20025BL  21326.15679651  .00003844  00000-0  25748-3 0  3266
2 15589  53.0536 278.0413 0002077  60.4503 162.6375 15.06402725    17
STARLINK-1364_old
1 25589C 20025BL  21325.10972306  .00001149  00000-0  77021-4 0  3250
2 25589  53.0540 282.7414 0002014  59.1708 242.4527 15.06395124    18
